CCSDS_OMM_VERS = 2.0
CREATION_DATE  = 
ORIGINATOR     = 

OBJECT_NAME    = STARLINK-36124
OBJECT_ID      = 2025-299V
CENTER_NAME    = EARTH
REF_FRAME      = TEME
TIME_SYSTEM    = UTC
MEAN_ELEMENT_THEORY = SGP/SGP4

EPOCH          = 2026-01-13T00:32:12.655680
MEAN_MOTION    = 15.40704642
ECCENTRICITY   = .0001144
INCLINATION    = 43.0001
RA_OF_ASC_NODE = 129.3434
ARG_OF_PERICENTER = 272.9795
MEAN_ANOMALY   = 87.0930

EPHEMERIS_TYPE = 0
CLASSIFICATION_TYPE = U
NORAD_CAT_ID   = 67121
ELEMENT_SET_NO = 999
REV_AT_EPOCH   = 453
BSTAR          = .77295E-3
MEAN_MOTION_DOT = .32125E-3
MEAN_MOTION_DDOT = 0

CCSDS_OMM_VERS = 2.0
CREATION_DATE  = 
ORIGINATOR     = 

OBJECT_NAME    = STARLINK-36188
OBJECT_ID      = 2025-299W
CENTER_NAME    = EARTH
REF_FRAME      = TEME
TIME_SYSTEM    = UTC
MEAN_ELEMENT_THEORY = SGP/SGP4

EPOCH          = 2026-01-13T00:38:40.002432
MEAN_MOTION    = 15.40699378
ECCENTRICITY   = .0000378
INCLINATION    = 42.9955
RA_OF_ASC_NODE = 129.3785
ARG_OF_PERICENTER = 295.7399
MEAN_ANOMALY   = 64.3419

EPHEMERIS_TYPE = 0
CLASSIFICATION_TYPE = U
NORAD_CAT_ID   = 67122
ELEMENT_SET_NO = 999
REV_AT_EPOCH   = 453
BSTAR          = .605E-3
MEAN_MOTION_DOT = .25051E-3
MEAN_MOTION_DDOT = 0

CCSDS_OMM_VERS = 2.0
CREATION_DATE  = 
ORIGINATOR     = 

OBJECT_NAME    = STARLINK-36151
OBJECT_ID      = 2025-299X
CENTER_NAME    = EARTH
REF_FRAME      = TEME
TIME_SYSTEM    = UTC
MEAN_ELEMENT_THEORY = SGP/SGP4

EPOCH          = 2026-01-13T01:01:15.263328
MEAN_MOTION    = 15.40686607
ECCENTRICITY   = .0000869
INCLINATION    = 42.9977
RA_OF_ASC_NODE = 129.5029
ARG_OF_PERICENTER = 51.8330
MEAN_ANOMALY   = 308.2604

EPHEMERIS_TYPE = 0
CLASSIFICATION_TYPE = U
NORAD_CAT_ID   = 67123
ELEMENT_SET_NO = 999
REV_AT_EPOCH   = 453
BSTAR          = .68225E-3
MEAN_MOTION_DOT = .28289E-3
MEAN_MOTION_DDOT = 0

CCSDS_OMM_VERS = 2.0
CREATION_DATE  = 
ORIGINATOR     = 

OBJECT_NAME    = STARLINK-36195
OBJECT_ID      = 2025-299Y
CENTER_NAME    = EARTH
REF_FRAME      = TEME
TIME_SYSTEM    = UTC
MEAN_ELEMENT_THEORY = SGP/SGP4

EPOCH          = 2026-01-12T16:58:20.465184
MEAN_MOTION    = 15.40702600
ECCENTRICITY   = .00021195
INCLINATION    = 42.9987
RA_OF_ASC_NODE = 131.2796
ARG_OF_PERICENTER = 246.8901
MEAN_ANOMALY   = 113.1733

EPHEMERIS_TYPE = 0
CLASSIFICATION_TYPE = U
NORAD_CAT_ID   = 67124
ELEMENT_SET_NO = 999
REV_AT_EPOCH   = 448
BSTAR          = .12766072E-2
MEAN_MOTION_DOT = .53404E-3
MEAN_MOTION_DDOT = 0

CCSDS_OMM_VERS = 2.0
CREATION_DATE  = 
ORIGINATOR     = 

OBJECT_NAME    = STARLINK-36219
OBJECT_ID      = 2025-299Z
CENTER_NAME    = EARTH
REF_FRAME      = TEME
TIME_SYSTEM    = UTC
MEAN_ELEMENT_THEORY = SGP/SGP4

EPOCH          = 2026-01-13T04:00:04.999392
MEAN_MOTION    = 15.40682025
ECCENTRICITY   = .0001534
INCLINATION    = 42.9996
RA_OF_ASC_NODE = 128.4505
ARG_OF_PERICENTER = 265.0891
MEAN_ANOMALY   = 201.4596

EPHEMERIS_TYPE = 0
CLASSIFICATION_TYPE = U
NORAD_CAT_ID   = 67125
ELEMENT_SET_NO = 999
REV_AT_EPOCH   = 585
BSTAR          = .95713E-3
MEAN_MOTION_DOT = .39863E-3
MEAN_MOTION_DDOT = 0

CCSDS_OMM_VERS = 2.0
CREATION_DATE  = 
ORIGINATOR     = 

OBJECT_NAME    = STARLINK-36223
OBJECT_ID      = 2025-299AA
CENTER_NAME    = EARTH
REF_FRAME      = TEME
TIME_SYSTEM    = UTC
MEAN_ELEMENT_THEORY = SGP/SGP4

EPOCH          = 2026-01-13T04:00:04.999392
MEAN_MOTION    = 15.40686258
ECCENTRICITY   = .0001593
INCLINATION    = 42.9993
RA_OF_ASC_NODE = 128.3908
ARG_OF_PERICENTER = 254.4811
MEAN_ANOMALY   = 236.9732

EPHEMERIS_TYPE = 0
CLASSIFICATION_TYPE = U
NORAD_CAT_ID   = 67126
ELEMENT_SET_NO = 999
REV_AT_EPOCH   = 585
BSTAR          = .12599E-2
MEAN_MOTION_DOT = .52667E-3
MEAN_MOTION_DDOT = 0

CCSDS_OMM_VERS = 2.0
CREATION_DATE  = 
ORIGINATOR     = 

OBJECT_NAME    = STARLINK-36164
OBJECT_ID      = 2025-299AB
CENTER_NAME    = EARTH
REF_FRAME      = TEME
TIME_SYSTEM    = UTC
MEAN_ELEMENT_THEORY = SGP/SGP4

EPOCH          = 2026-01-13T04:00:04.999392
MEAN_MOTION    = 15.40646181
ECCENTRICITY   = .0001038
INCLINATION    = 42.9992
RA_OF_ASC_NODE = 128.2994
ARG_OF_PERICENTER = 268.1676
MEAN_ANOMALY   = 260.6020

EPHEMERIS_TYPE = 0
CLASSIFICATION_TYPE = U
NORAD_CAT_ID   = 67127
ELEMENT_SET_NO = 999
REV_AT_EPOCH   = 585
BSTAR          = .10382E-2
MEAN_MOTION_DOT = .43232E-3
MEAN_MOTION_DDOT = 0

CCSDS_OMM_VERS = 2.0
CREATION_DATE  = 
ORIGINATOR     = 

OBJECT_NAME    = STARLINK-35685
OBJECT_ID      = 2025-299AC
CENTER_NAME    = EARTH
REF_FRAME      = TEME
TIME_SYSTEM    = UTC
MEAN_ELEMENT_THEORY = SGP/SGP4

EPOCH          = 2026-01-12T07:47:52.967904
MEAN_MOTION    = 15.40738067
ECCENTRICITY   = .00011163
INCLINATION    = 42.9965
RA_OF_ASC_NODE = 133.5723
ARG_OF_PERICENTER = 288.4115
MEAN_ANOMALY   = 71.6620

EPHEMERIS_TYPE = 0
CLASSIFICATION_TYPE = U
NORAD_CAT_ID   = 67128
ELEMENT_SET_NO = 999
REV_AT_EPOCH   = 442
BSTAR          = .13256495E-2
MEAN_MOTION_DOT = .55546E-3
MEAN_MOTION_DDOT = 0

CCSDS_OMM_VERS = 2.0
CREATION_DATE  = 
ORIGINATOR     = 

OBJECT_NAME    = STARLINK-36214
OBJECT_ID      = 2025-299AD
CENTER_NAME    = EARTH
REF_FRAME      = TEME
TIME_SYSTEM    = UTC
MEAN_ELEMENT_THEORY = SGP/SGP4

EPOCH          = 2026-01-13T04:00:04.999392
MEAN_MOTION    = 15.40679723
ECCENTRICITY   = .0001619
INCLINATION    = 42.9996
RA_OF_ASC_NODE = 128.2386
ARG_OF_PERICENTER = 274.9116
MEAN_ANOMALY   = 278.7668

EPHEMERIS_TYPE = 0
CLASSIFICATION_TYPE = U
NORAD_CAT_ID   = 67129
ELEMENT_SET_NO = 999
REV_AT_EPOCH   = 585
BSTAR          = .1005E-2
MEAN_MOTION_DOT = .41881E-3
MEAN_MOTION_DDOT = 0

CCSDS_OMM_VERS = 2.0
CREATION_DATE  = 
ORIGINATOR     = 

OBJECT_NAME    = STARLINK-36194
OBJECT_ID      = 2025-299AE
CENTER_NAME    = EARTH
REF_FRAME      = TEME
TIME_SYSTEM    = UTC
MEAN_ELEMENT_THEORY = SGP/SGP4

EPOCH          = 2026-01-13T04:00:04.999392
MEAN_MOTION    = 15.40717169
ECCENTRICITY   = .000122
INCLINATION    = 42.9997
RA_OF_ASC_NODE = 128.4209
ARG_OF_PERICENTER = 274.3726
MEAN_ANOMALY   = 204.6814

EPHEMERIS_TYPE = 0
CLASSIFICATION_TYPE = U
NORAD_CAT_ID   = 67130
ELEMENT_SET_NO = 999
REV_AT_EPOCH   = 586
BSTAR          = .11982E-2
MEAN_MOTION_DOT = .50106E-3
MEAN_MOTION_DDOT = 0

CCSDS_OMM_VERS = 2.0
CREATION_DATE  = 
ORIGINATOR     = 

OBJECT_NAME    = ZIYUAN 3-04 (ZY 3-04)
OBJECT_ID      = 2025-300A
CENTER_NAME    = EARTH
REF_FRAME      = TEME
TIME_SYSTEM    = UTC
MEAN_ELEMENT_THEORY = SGP/SGP4

EPOCH          = 2026-01-09T04:22:46.801632
MEAN_MOTION    = 15.21458354
ECCENTRICITY   = .00039457
INCLINATION    = 97.4889
RA_OF_ASC_NODE = 88.1516
ARG_OF_PERICENTER = 118.6144
MEAN_ANOMALY   = 241.5489

EPHEMERIS_TYPE = 0
CLASSIFICATION_TYPE = U
NORAD_CAT_ID   = 67131
ELEMENT_SET_NO = 999
REV_AT_EPOCH   = 366
BSTAR          = .80129707E-4
MEAN_MOTION_DOT = .173E-4
MEAN_MOTION_DDOT = 0

CCSDS_OMM_VERS = 2.0
CREATION_DATE  = 
ORIGINATOR     = 

OBJECT_NAME    = CZ-4B R/B
OBJECT_ID      = 2025-300B
CENTER_NAME    = EARTH
REF_FRAME      = TEME
TIME_SYSTEM    = UTC
MEAN_ELEMENT_THEORY = SGP/SGP4

EPOCH          = 2026-01-13T03:30:52.377984
MEAN_MOTION    = 15.71158677
ECCENTRICITY   = .0152245
INCLINATION    = 97.5509
RA_OF_ASC_NODE = 94.3750
ARG_OF_PERICENTER = 273.1699
MEAN_ANOMALY   = 85.2155

EPHEMERIS_TYPE = 0
CLASSIFICATION_TYPE = U
NORAD_CAT_ID   = 67132
ELEMENT_SET_NO = 999
REV_AT_EPOCH   = 439
BSTAR          = .44419E-3
MEAN_MOTION_DOT = .112698E-2
MEAN_MOTION_DDOT = .60529E-5

