STARLINK-36124          
1 67121U 25299V   26013.02236870  .00032125  00000+0  77295-3 0  9999
2 67121  43.0001 129.3434 0001144 272.9795  87.0930 15.40704642  4536
STARLINK-36188          
1 67122U 25299W   26013.02685188  .00025051  00000+0  60500-3 0  9991
2 67122  42.9955 129.3785 0000378 295.7399  64.3419 15.40699378  4532
STARLINK-36151          
1 67123U 25299X   26013.04253777  .00028289  00000+0  68225-3 0  9997
2 67123  42.9977 129.5029 0000869  51.8330 308.2604 15.40686607  4538
STARLINK-36195          
1 67124U 25299Y   26012.70718131  .00053404  00000+0  12766-2 0  9995
2 67124  42.9987 131.2796 0002119 246.8901 113.1733 15.40702600  4483
STARLINK-36219          
1 67125U 25299Z   26013.16672453  .00039863  00000+0  95713-3 0  9990
2 67125  42.9996 128.4505 0001534 265.0891 201.4596 15.40682025  5859
STARLINK-36223          
1 67126U 25299AA  26013.16672453  .00052667  00000+0  12599-2 0  9998
2 67126  42.9993 128.3908 0001593 254.4811 236.9732 15.40686258  5859
STARLINK-36164          
1 67127U 25299AB  26013.16672453  .00043232  00000+0  10382-2 0  9995
2 67127  42.9992 128.2994 0001038 268.1676 260.6020 15.40646181  5853
STARLINK-35685          
1 67128U 25299AC  26012.32491861  .00055546  00000+0  13256-2 0  9999
2 67128  42.9965 133.5723 0001116 288.4115  71.6620 15.40738067  4426
STARLINK-36214          
1 67129U 25299AD  26013.16672453  .00041881  00000+0  10050-2 0  9997
2 67129  42.9996 128.2386 0001619 274.9116 278.7668 15.40679723  5859
STARLINK-36194          
1 67130U 25299AE  26013.16672453  .00050106  00000+0  11982-2 0  9994
2 67130  42.9997 128.4209 0001220 274.3726 204.6814 15.40717169  5866
ZIYUAN 3-04 (ZY 3-04)   
1 67131U 25300A   26009.18248613  .00001730  00000+0  80130-4 0  9994
2 67131  97.4889  88.1516 0003945 118.6144 241.5489 15.21458354  3666
CZ-4B R/B               
1 67132U 25300B   26013.14643956  .00112698  60529-5  44419-3 0  9998
2 67132  97.5509  94.3750 0152245 273.1699  85.2155 15.71158677  4390
